NORAD_CAT_ID,OBJECT_NAME,OBJECT_TYPE,EPOCH,MEAN_MOTION,ECCENTRICITY,INCLINATION,RA_OF_ASC_NODE,ARG_OF_PERICENTER,MEAN_ANOMALY,BSTAR,MEAN_MOTION_DOT,MEAN_MOTION_DDOT,TLE_LINE0,TLE_LINE1,TLE_LINE2,SEMIMAJOR_AXIS,PERIOD,APOGEE,PERIGEE,DECAYED
52598.0,STARLINK-4019,PAYLOAD,2023-01-19 09:40:31,15.08903519,0.0001718,53.2151,25.5162,113.4581,246.6592,0.0016565,0.0002622,0.0,0 STARLINK-4019,1 52598U 22052A   23019.40314232  .00026220  00000-0  16565-2 0  9991,2 52598  53.2151  25.5162 0001718 113.4581 246.6592 15.08903519 38252,6917.686,95.434,540.74,538.363,0.0
52598.0,STARLINK-4019,PAYLOAD,2023-01-19 17:37:27,15.08858921,0.0002972,53.2159,24.0294,88.9922,271.141,0.00072943,0.00011346,0.0,0 STARLINK-4019,1 52598U 22052A   23019.73435174  .00011346  00000-0  72943-3 0  9992,2 52598  53.2159  24.0294 0002972  88.9922 271.1410 15.08858921 38302,6917.823,95.436,541.744,537.632,0.0
52598.0,STARLINK-4019,PAYLOAD,2023-01-20 06:20:33,15.08832437,0.0001623,53.2156,21.65,98.03,262.0876,0.0013100999999999,0.00020619,0.0,0 STARLINK-4019,1 52598U 22052A   23020.26427170  .00020619  00000-0  13101-2 0  9992,2 52598  53.2156  21.6500 0001623  98.0300 262.0876 15.08832437 38383,6917.904,95.438,540.891,538.646,0.0
52598.0,STARLINK-4019,PAYLOAD,2023-01-20 17:28:15,15.08834187,0.0001368,53.2155,19.5685,92.4609,267.654,0.0012921,0.00020332,0.0,0 STARLINK-4019,1 52598U 22052A   23020.72795620  .00020332  00000-0  12921-2 0  9992,2 52598  53.2155  19.5685 0001368  92.4609 267.6540 15.08834187 38459,6917.898,95.438,540.71,538.817,0.0
52598.0,STARLINK-4019,PAYLOAD,2023-01-21 09:22:06,15.08853821,0.0001825,53.2165,16.5941,91.511,268.6092,0.0011071,0.00017382,0.0,0 STARLINK-4019,1 52598U 22052A   23021.39035632  .00017382  00000-0  11071-2 0  9992,2 52598  53.2165  16.5941 0001825  91.5110 268.6092 15.08853821 38557,6917.838000000001,95.437,540.966,538.441,0.0
52598.0,STARLINK-4019,PAYLOAD,2023-01-22 06:02:06,15.0887675,0.0001408,53.2171,12.7276,91.5506,268.5648,0.0011213,0.0001761999999999,0.0,0 STARLINK-4019,1 52598U 22052A   23022.25146654  .00017620  00000-0  11213-2 0  9998,2 52598  53.2171  12.7276 0001408  91.5506 268.5648 15.08876750 38685,6917.768,95.435,540.607,538.659,0.0
52598.0,STARLINK-4019,PAYLOAD,2023-01-23 05:52:52,15.08867145,9.42e-05,53.2172,8.2666,99.6582,260.4517,0.00049166,7.551e-05,0.0,0 STARLINK-4019,1 52598U 22052A   23023.24505448  .00007551  00000-0  49166-3 0  9999,2 52598  53.2172   8.2666 0000942  99.6582 260.4517 15.08867145 38835,6917.797,95.436,540.314,539.011,0.0
52598.0,STARLINK-4019,PAYLOAD,2023-01-23 15:25:12,15.0884364,0.0002465,53.2173,6.4826,81.3547,278.7724,-0.0001465,-2.62e-05,0.0,0 STARLINK-4019,1 52598U 22052A   23023.64250147 -.00002620  00000-0 -14650-3 0  9990,2 52598  53.2173   6.4826 0002465  81.3547 278.7724 15.08843640 38897,6917.869000000001,95.437,541.44,538.029,0.0
52598.0,STARLINK-4019,PAYLOAD,2023-01-24 04:08:17,15.08819132,0.0001472,53.2166,4.1061,100.8432,259.2726,-0.00051464,-8.464e-05,0.0,0 STARLINK-4019,1 52598U 22052A   23024.17242807 -.00008464  00000-0 -51464-3 0  9999,2 52598  53.2166   4.1061 0001472 100.8432 259.2726 15.08819132 38976,6917.944,95.439,540.827,538.7909999999999,0.0
52598.0,STARLINK-4019,PAYLOAD,2023-01-25 05:34:29,15.08840738,0.0001325,53.2167,359.3482,91.989,268.1254,0.0011339,0.00017804,0.0,0 STARLINK-4019,1 52598U 22052A   23025.23228312  .00017804  00000-0  11339-2 0  9994,2 52598  53.2167 359.3482 0001325  91.9890 268.1254 15.08840738 39134,6917.878000000001,95.438,540.66,538.827,0.0
52598.0,STARLINK-4019,PAYLOAD,2023-01-25 08:45:15,15.08849889,0.000136,53.2165,358.7538,88.9993,271.1155,0.0013744,0.00021659,0.0,0 STARLINK-4019,1 52598U 22052A   23025.36476238  .00021659  00000-0  13744-2 0  9995,2 52598  53.2165 358.7538 0001360  88.9993 271.1155 15.08849889 39585,6917.85,95.437,540.656,538.774,0.0
52598.0,STARLINK-4019,PAYLOAD,2023-01-25 15:06:48,15.08850077,0.0001376999999999,53.2168,357.5639,81.0291,279.0857,0.00095727,0.00014984,0.0,0 STARLINK-4019,1 52598U 22052A   23025.62972259  .00014984  00000-0  95727-3 0  9993,2 52598  53.2168 357.5639 0001377  81.0291 279.0857 15.08850077 39622,6917.85,95.437,540.6669999999999,538.762,0.0
52598.0,STARLINK-4019,PAYLOAD,2023-01-26 07:00:39,15.08856028,0.0001403,53.2167,354.5892,81.9599,278.1552,0.00065394,0.00010139,0.0,0 STARLINK-4019,1 52598U 22052A   23026.29211859  .00010139  00000-0  65394-3 0  9994,2 52598  53.2167 354.5892 0001403  81.9599 278.1552 15.08856028 39296,6917.831,95.437,540.6669999999999,538.726,0.0
52598.0,STARLINK-4019,PAYLOAD,2023-01-26 16:32:57,15.08844193,0.0001274999999999,53.2165,352.80400000000003,104.4038,255.7096,0.00012863,1.76e-05,0.0,0 STARLINK-4019,1 52598U 22052A   23026.68955948  .00001760  00000-0  12863-3 0  9994,2 52598  53.2165 352.8040 0001275 104.4038 255.7096 15.08844193 39357,6917.868,95.437,540.615,538.851,0.0
52598.0,STARLINK-4019,PAYLOAD,2023-01-27 06:51:26,15.08846658,0.0001314,53.2159,350.1285,85.2142,274.9001,0.00024278,3.579e-05,0.0,0 STARLINK-4019,1 52598U 22052A   23027.28572065  .00003579  00000-0  24278-3 0  9999,2 52598  53.2159 350.1285 0001314  85.2142 274.9001 15.08846658 39872,6917.86,95.437,540.634,538.816,0.0
52598.0,STARLINK-4019,PAYLOAD,2023-01-28 06:42:13,15.088464000000002,0.0001284,53.2168,345.667,89.5132,270.6008,0.00024651,3.638e-05,0.0,0 STARLINK-4019,1 52598U 22052A   23028.27932324  .00003638  00000-0  24651-3 0  9998,2 52598  53.2168 345.6670 0001284  89.5132 270.6008 15.08846400 39595,6917.861,95.437,540.614,538.8380000000001,0.0
52598.0,STARLINK-4019,PAYLOAD,2023-01-28 21:00:41,15.08844598,0.0001297,53.2164,342.9901,94.0949,266.0192,0.00031828,4.782e-05,0.0,0 STARLINK-4019,1 52598U 22052A   23028.87548483  .00004782  00000-0  31828-3 0  9998,2 52598  53.2164 342.9901 0001297  94.0949 266.0192 15.08844598 40118,6917.866,95.437,540.629,538.834,0.0
52598.0,STARLINK-4019,PAYLOAD,2023-01-29 06:33:00,15.08840905,0.0001269,53.2175,341.2067,88.8902,271.2235,4.5545e-05,4.37e-06,0.0,0 STARLINK-4019,1 52598U 22052A   23029.27292579  .00000437  00000-0  45545-4 0  9990,2 52598  53.2175 341.2067 0001269  88.8902 271.2235 15.08840905 39745,6917.878,95.437,540.621,538.865,0.0
52598.0,STARLINK-4019,PAYLOAD,2023-01-29 20:51:29,15.08838514,0.0001265,53.2166,338.5323,89.8288,270.2849,5.5526e-05,5.96e-06,0.0,0 STARLINK-4019,1 52598U 22052A   23029.86908763  .00000596  00000-0  55526-4 0  9990,2 52598  53.2166 338.5323 0001265  89.8288 270.2849 15.08838514 40265,6917.885,95.438,540.625,538.875,0.0
52598.0,STARLINK-4019,PAYLOAD,2023-01-30 06:23:47,15.08845257,0.0001176,53.2175,336.7485,88.2784,271.8343,0.00013692,1.892e-05,0.0,0 STARLINK-4019,1 52598U 22052A   23030.26652096  .00001892  00000-0  13692-3 0  9998,2 52598  53.2175 336.7485 0001176  88.2784 271.8343 15.08845257 40324,6917.864,95.437,540.543,538.916,0.0
52598.0,STARLINK-4019,PAYLOAD,2023-01-30 20:42:16,15.08831947,0.0001268,53.2174,334.0711,99.6907,260.4229,7.3949e-05,8.89e-06,0.0,0 STARLINK-4019,1 52598U 22052A   23030.86269062  .00000889  00000-0  73949-4 0  9998,2 52598  53.2174 334.0711 0001268  99.6907 260.4229 15.08831947 40419,6917.905,95.438,540.647,538.893,0.0
52598.0,STARLINK-4019,PAYLOAD,2023-01-30 22:17:39,15.08833087,0.0001351,53.2173,333.7738,100.319,259.7955,8.3248e-05,1.037e-05,0.0,0 STARLINK-4019,1 52598U 22052A   23030.92893008  .00001037  00000-0  83248-4 0  9997,2 52598  53.2173 333.7738 0001351 100.3190 259.7955 15.08833087 39995,6917.902,95.438,540.701,538.832,0.0
52598.0,STARLINK-4019,PAYLOAD,2023-01-31 03:03:48,15.08840466,0.0001251,53.2174,332.8819,95.3772,264.7363,0.0001461,2.038e-05,0.0,0 STARLINK-4019,1 52598U 22052A   23031.12764480  .00002038  00000-0  14610-3 0  9999,2 52598  53.2174 332.8819 0001251  95.3772 264.7363 15.08840466 40028,6917.879,95.438,540.609,538.879,0.0
52598.0,STARLINK-4019,PAYLOAD,2023-02-01 06:05:19,15.08870213,0.0001379,53.2169,327.8275,94.2214,265.8936,0.00031529,4.738e-05,0.0,0 STARLINK-4019,1 52598U 22052A   23032.25369691  .00004738  00000-0  31529-3 0  9996,2 52598  53.2169 327.8275 0001379  94.2214 265.8936 15.08870213 40191,6917.788,95.436,540.607,538.699,0.0
52598.0,STARLINK-4019,PAYLOAD,2023-02-02 02:45:24,15.0879709,0.0001447,53.2164,323.9623,85.6929,274.4229,-0.00060983,-9.969e-05,0.0,0 STARLINK-4019,1 52598U 22052A   23033.11486661 -.00009969  00000-0 -60983-3 0  9998,2 52598  53.2164 323.9623 0001447  85.6929 274.4229 15.08797090 40320,6918.012,95.44,540.878,538.876,0.0
52598.0,STARLINK-4019,PAYLOAD,2023-02-02 21:50:01,15.08833718,0.0001838,53.2158,320.3943,90.1696,269.9506,-0.00016878,-2.973e-05,0.0,0 STARLINK-4019,1 52598U 22052A   23033.90973676 -.00002973  00000-0 -16878-3 0  9994,2 52598  53.2158 320.3943 0001838  90.1696 269.9506 15.08833718 40443,6917.9,95.438,541.036,538.493,0.0
52598.0,STARLINK-4019,PAYLOAD,2023-02-03 04:11:33,15.08848062,0.0001343,53.2172,319.204,96.6848,263.4297,0.00013119,1.801e-05,0.0,0 STARLINK-4019,1 52598U 22052A   23034.17469009  .00001801  00000-0  13119-3 0  9996,2 52598  53.2172 319.2040 0001343  96.6848 263.4297 15.08848062 40483,6917.856,95.437,540.65,538.792,0.0
52598.0,STARLINK-4019,PAYLOAD,2023-02-03 18:30:02,15.0884057,0.0001578,53.2167,316.5275,87.656,272.4613,0.00069838,0.00010844,0.0,0 STARLINK-4019,1 52598U 22052A   23034.77086040  .00010844  00000-0  69838-3 0  9998,2 52598  53.2167 316.5275 0001578  87.6560 272.4613 15.08840570 40576,6917.879,95.438,540.835,538.652,0.0
52598.0,STARLINK-4019,PAYLOAD,2023-02-04 04:02:20,15.08859583,0.0001784,53.2164,314.744,83.3922,276.7273,0.00085561,0.00013363,0.0,0 STARLINK-4019,1 52598U 22052A   23035.16829124  .00013363  00000-0  85561-3 0  9990,2 52598  53.2164 314.7440 0001784  83.3922 276.7273 15.08859583 40631,6917.821,95.436,540.92,538.451,0.0
